ATS 1                   
1 02608U 66110A   08197.88187465  .00000025  00000-0  10000-3 0  8677
2 02608   8.5141 312.3868 0005182 187.7752 172.3647  1.00397761 69134
ATS 3                   
1 03029U 67111A   08198.36385108 -.00000082  00000-0  10000-3 0  3641
2 03029   9.9502 320.0020 0014180  35.4630 324.7457  1.00272506149013
ORIZURU (DEBUT)         
1 20479U 90013B   08197.83544947  .00000002  00000-0  77916-4 0  9978
2 20479  99.0235 177.0512 0539144 207.3705 149.8016 12.83675263863879
SURFSAT                 
1 23711U 95059B   08198.58262067  .00000104  00000-0  28872-3 0    68
2 23711 100.2965 205.2685 0368326 164.3222 196.9647 13.12561684608402
MAQSAT H                
1 25023U 97066A   08196.66904322  .00000224  00000-0  19658-2 0  5160
2 25023   7.8485  40.1431 6498225 145.4062 282.4544  3.09463008120899
MAQSAT B                
1 25024U 97066B   08197.80459341  .00000002  00000-0  28411-3 0  5571
2 25024   7.8672  35.6354 6506234 153.6971 263.7820  3.08762779120852
TEAMSAT                 
1 25025U 97066C   08197.01513055 -.00000073  00000-0 -70811-4 0  5682
2 25025   7.7995  49.4263 6510461 126.5765 312.1382  3.07911170120480
OPAL (OO-38)            
1 26063U 00004C   08198.27996508 -.00000046  00000-0  42315-5 0  2616
2 26063 100.1914 278.1347 0037259 127.2462 233.2126 14.35839707443745
FALCONSAT               
1 26064U 00004D   08197.72863592 -.00000031  00000-0  94973-5 0  2578
2 26064 100.1935 275.7640 0038532 134.8218 225.6095 14.35396335443549
PICOSAT 1 & 2 [TETHERED]
1 26080U 00004H   08198.71466642  .00000003  00000-0  19491-4 0  8598
2 26080 100.1905 298.8447 0033073  82.6348 277.8586 14.40241078443198
PICOSAT 3               
1 26091U 00004J   08198.74391601  .00000156  00000-0  63627-4 0  3678
2 26091 100.1873 308.1574 0031937  50.6942 309.7071 14.43252512443037
PICOSAT 4               
1 26092U 00004K   08198.10160650  .00000044  00000-0  32256-4 0  2160
2 26092 100.1785 292.8627 0036207  80.8867 279.6415 14.40194884442326
PICOSAT 5               
1 26093U 00004L   08198.74784742  .00000240  00000-0  86235-4 0  1023
2 26093 100.1895 314.0497 0032811  36.7263 323.6178 14.44740189443616
PICOSAT 6               
1 26094U 00004M   08197.74985432 -.00000001  00000-0  18499-4 0  6053
2 26094 100.1852 291.0354 0036060  91.3762 269.1560 14.39512443441809
SNAP 1                  
1 26386U 00033C   08197.69919166  .00000032  00000-0  15431-4 0  4812
2 26386  98.4130 216.5617 0012086 160.3038 199.8644 14.65069084429894
CHAMP                   
1 26405U 00039B   08198.89026449  .00006978  00000-0  35126-4 0  5950
2 26405  87.2259  89.4712 0003299  84.1304 276.0349 15.81370760456594
PICOSAT 9               
1 26930U 01043B   08198.49834138 -.00000071  00000-0  48540-5 0  9168
2 26930  67.0001 189.8567 0007483 305.6980  54.3426 14.30025865354744
PROBA 1                 
1 26958U 01049B   08198.78768073 -.00000027  00000-0  31475-5 0  6886
2 26958  97.6692 266.5520 0082911  40.9163 319.8200 14.89587538365893
CUTE-1 (CO-55)          
1 27844U 03031E   08197.68046494  .00000022  00000-0  30440-4 0  3519
2 27844  98.7150 205.5502 0010894  38.3136 321.8809 14.20587744261486
CANX-1                  
1 27847U 03031H   08197.52984179  .00000005  00000-0  22295-4 0  2863
2 27847  98.7098 206.3857 0009837  20.3938 339.7626 14.20925493261480
CUBESAT XI-IV (CO-57)   
1 27848U 03031J   08198.03460204  .00000023  00000-0  31314-4 0  3020
2 27848  98.7163 204.9905 0010644  40.2547 319.9407 14.20396513261502
NAXING 1                
1 28221U 04012B   08197.79447600  .00000166  00000-0  23810-4 0  9030
2 28221  97.5362 244.6957 0010443 233.4381 126.5847 14.87822378230291
ST5-A                   
1 28980U 06008A   08198.51242304  .00001037  00000-0  66721-4 0  7285
2 28980 105.6560 193.0493 2365251 248.1215  85.2917 10.59500995 89404
ST5-B                   
1 28981U 06008B   08198.51646467  .00001476  17395-5  69329-4 0  7659
2 28981 105.6662 205.1765 2356000 237.9327  97.1333 10.69280533 89854
ST5-C                   
1 28982U 06008C   08198.88751327  .00001135  17236-5  67287-4 0  7705
2 28982 105.6817 202.6520 2361823 241.3635  93.0014 10.66096348 89743
GENESIS 1               
1 29252U 06029A   08197.91723106  .00000041  00000-0  16407-4 0  5512
2 29252  64.5133 350.4809 0057707 260.2787  99.1802 15.03228495110360
FALCONSAT-3             
1 30776U 07006E   08198.53657470  .00000212  00000-0  18492-4 0  3558
2 30776  35.4355 335.4932 0002056 291.2417  68.8079 15.03019532 74567
GENESIS 2               
1 31789U 07028A   08198.85980742  .00000044  00000-0  16704-4 0  2931
2 31789  64.5072  18.0408 0043991 311.2222  48.5101 15.02885161 57732
